COMMENT,ORIGINATOR,NORAD_CAT_ID,OBJECT_NAME,OBJECT_TYPE,CLASSIFICATION_TYPE,INTLDES,EPOCH,EPOCH_MICROSECONDS,MEAN_MOTION,ECCENTRICITY,INCLINATION,RA_OF_ASC_NODE,ARG_OF_PERICENTER,MEAN_ANOMALY,EPHEMERIS_TYPE,ELEMENT_SET_NO,REV_AT_EPOCH,BSTAR,MEAN_MOTION_DOT,MEAN_MOTION_DDOT,FILE,TLE_LINE0,TLE_LINE1,TLE_LINE2,OBJECT_ID,OBJECT_NUMBER,SEMIMAJOR_AXIS,PERIOD,APOGEE,PERIGEE,DECAYED
GENERATED VIA SPACETRACK.ORG API,18 SPCS,4084,SL-8 DEB,DEBRIS,U,69070C,2023-02-10 12:07:05,422368,14.46278584,0.0023178,74.0663,74.9956,279.752,80.1021,0,999,81893,9.7866e-05,3.25e-06,0,3784352,0 SL-8 DEB,1  4084U 69070C   23041.50492387  .00000325  00000-0  97866-4 0  9996,2  4084  74.0663  74.9956 0023178 279.7520  80.1021 14.46278584818937,1969-070C,4084,7115.966,99.566,754.324,721.338,0
GENERATED VIA SPACETRACK.ORG API,18 SPCS,4084,SL-8 DEB,DEBRIS,U,69070C,2023-02-10 12:07:05,422368,14.46278584,0.0023178,74.0663,74.9956,279.752,80.1021,0,999,81895,9.7866e-05,3.25e-06,0,3785071,0 SL-8 DEB,1 04084U 69070C   23041.50492387  .00000325  00000-0  97866-4 0  9996,2 04084  74.0663  74.9956 0023178 279.7520  80.1021 14.46278584818959,1969-070C,4084,7115.966,99.566,754.324,721.338,0
GENERATED VIA SPACETRACK.ORG API,18 SPCS,4084,SL-8 DEB,DEBRIS,U,69070C,2023-02-11 06:22:45,615072,14.46279179,0.0023182,74.0663,73.578,278.2264,81.6265,0,999,81906,0.00010099,3.36e-06,0,3786144,0 SL-8 DEB,1 04084U 69070C   23042.26580573  .00000336  00000-0  10099-3 0  9999,2 04084  74.0663  73.5780 0023182 278.2264  81.6265 14.46279179819063,1969-070C,4084,7115.964,99.566,754.325,721.333,0
GENERATED VIA SPACETRACK.ORG API,18 SPCS,4084,SL-8 DEB,DEBRIS,U,69070C,2023-02-11 19:39:36,658656,14.46279645,0.0023179,74.0663,72.5469,277.1127,82.7395,0,999,81914,0.00010636,3.55e-06,0,3786577,0 SL-8 DEB,1 04084U 69070C   23042.81917429  .00000355  00000-0  10636-3 0  9992,2 04084  74.0663  72.5469 0023179 277.1127  82.7395 14.46279645819141,1969-070C,4084,7115.963,99.566,754.322,721.334,0
GENERATED VIA SPACETRACK.ORG API,18 SPCS,4084,SL-8 DEB,DEBRIS,U,69070C,2023-02-12 00:38:25,789632,14.46279853,0.002318,74.0663,72.1603,276.6815,83.1705,0,999,81917,0.00010808,3.61e-06,0,3787692,0 SL-8 DEB,1 04084U 69070C   23043.02668738  .00000361  00000-0  10808-3 0  9990,2 04084  74.0663  72.1603 0023180 276.6815  83.1705 14.46279853819171,1969-070C,4084,7115.962,99.566,754.322,721.332,0
GENERATED VIA SPACETRACK.ORG API,18 SPCS,4084,SL-8 DEB,DEBRIS,U,69070C,2023-02-13 01:32:31,437600,14.46280745,0.0023184,74.0662,70.227,274.5809,85.2701,0,999,81930,0.0001145,3.84e-06,0,3788622,0 SL-8 DEB,1  4084U 69070C   23044.06425275  .00000384  00000-0  11450-3 0  9991,2  4084  74.0662  70.2270 0023184 274.5809  85.2701 14.46280745819309,1969-070C,4084,7115.959,99.566,754.322,721.326,0
GENERATED VIA SPACETRACK.ORG API,18 SPCS,4084,SL-8 DEB,DEBRIS,U,69070C,2023-02-13 08:10:56,946432,14.46280944,0.0023184,74.0663,69.7115,274.0195,85.8313,0,999,81936,0.00011684,3.93e-06,0,3789366,0 SL-8 DEB,1 04084U 69070C   23044.34093688  .00000393  00000-0  11684-3 0  9990,2 04084  74.0663  69.7115 0023184 274.0195  85.8313 14.46280944819366,1969-070C,4084,7115.958,99.566,754.321,721.326,0
GENERATED VIA SPACETRACK.ORG API,18 SPCS,4084,SL-8 DEB,DEBRIS,U,69070C,2023-02-14 07:25:26,156928,14.46281912,0.002319,74.0662,67.9071,272.0726,87.7777,0,999,81950,0.00012619,4.27e-06,0,3791349,0 SL-8 DEB,1 04084U 69070C   23045.30933052  .00000427  00000-0  12619-3 0  9992,2 04084  74.0662  67.9071 0023190 272.0726  87.7777 14.46281912819508,1969-070C,4084,7115.955,99.566,754.322,721.318,0
GENERATED VIA SPACETRACK.ORG API,18 SPCS,4084,SL-8 DEB,DEBRIS,U,69070C,2023-02-14 19:02:40,752672,14.46282193,0.0023191,74.0662,67.0049,271.1151,88.735,0,999,81957,0.00012056,4.06e-06,0,3792084,0 SL-8 DEB,1 04084U 69070C   23045.79352723  .00000406  00000-0  12056-3 0  9997,2 04084  74.0662  67.0049 0023191 271.1151  88.7350 14.46282193819574,1969-070C,4084,7115.954,99.566,754.322,721.317,0
GENERATED VIA SPACETRACK.ORG API,18 SPCS,4084,SL-8 DEB,DEBRIS,U,69070C,2023-02-15 03:20:42,601344,14.4628232,0.0023192,74.0662,66.3604,270.4127,89.4374,0,999,81960,0.00011229,3.77e-06,0,3792385,0 SL-8 DEB,1  4084U 69070C   23046.13938196  .00000377  00000-0  11229-3 0  9998,2  4084  74.0662  66.3604 0023192 270.4127  89.4374 14.46282320819609,1969-070C,4084,7115.954,99.566,754.322,721.316,0
GENERATED VIA SPACETRACK.ORG API,18 SPCS,4084,SL-8 DEB,DEBRIS,U,69070C,2023-02-15 11:38:44,441376,14.46282791,0.0023196,74.0663,65.716,269.7302,90.1198,0,999,81967,0.00012319,4.16e-06,0,3793706,0 SL-8 DEB,1 04084U 69070C   23046.48523659  .00000416  00000-0  12319-3 0  9995,2 04084  74.0663  65.7160 0023196 269.7302  90.1198 14.46282791819672,1969-070C,4084,7115.952,99.566,754.323,721.311,0
GENERATED VIA SPACETRACK.ORG API,18 SPCS,4084,SL-8 DEB,DEBRIS,U,69070C,2023-02-15 18:17:09,893184,14.46283146,0.0023195,74.0663,65.2005,269.1743,90.6758,0,999,81971,0.00012655,4.28e-06,0,3795153,0 SL-8 DEB,1 04084U 69070C   23046.76192006  .00000428  00000-0  12655-3 0  9990,2 04084  74.0663  65.2005 0023195 269.1743  90.6758 14.46283146819714,1969-070C,4084,7115.951,99.566,754.322,721.311,0
GENERATED VIA SPACETRACK.ORG API,18 SPCS,4084,SL-8 DEB,DEBRIS,U,69070C,2023-02-16 10:53:13,549056,14.46283879,0.0023189,74.0663,63.9116,267.7716,92.0787,0,999,81981,0.00013511,4.59e-06,0,3798293,0 SL-8 DEB,1 04084U 69070C   23047.45362904  .00000459  00000-0  13511-3 0  9999,2 04084  74.0663  63.9116 0023189 267.7716  92.0787 14.46283879819811,1969-070C,4084,7115.949,99.566,754.315,721.313,0
GENERATED VIA SPACETRACK.ORG API,18 SPCS,4084,SL-8 DEB,DEBRIS,U,69070C,2023-02-16 17:31:38,994816,14.46284158,0.0023186,74.0663,63.3961,267.2116,92.6389,0,999,81985,0.00013505,4.58e-06,0,3799178,0 SL-8 DEB,1 04084U 69070C   23047.73031244  .00000458  00000-0  13505-3 0  9992,2 04084  74.0663  63.3961 0023186 267.2116  92.6389 14.46284158819858,1969-070C,4084,7115.948,99.565,754.312,721.314,0
GENERATED VIA SPACETRACK.ORG API,18 SPCS,4084,SL-8 DEB,DEBRIS,U,69070C,2023-02-17 03:29:17,172096,14.46284179,0.0023187,74.0663,62.6228,266.3879,93.4628,0,999,81989,0.00011707,3.94e-06,0,3800077,0 SL-8 DEB,1  4084U 69070C   23048.14533764  .00000394  00000-0  11707-3 0  9993,2  4084  74.0663  62.6228 0023187 266.3879  93.4628 14.46284179819895,1969-070C,4084,7115.948,99.565,754.313,721.313,0
GENERATED VIA SPACETRACK.ORG API,18 SPCS,4084,SL-8 DEB,DEBRIS,U,69070C,2023-02-17 10:07:42,616992,14.46284403,0.0023187,74.0663,62.1072,265.8374,94.0135,0,999,81995,0.00011709,3.94e-06,0,3802730,0 SL-8 DEB,1 04084U 69070C   23048.42202103  .00000394  00000-0  11709-3 0  9996,2 04084  74.0663  62.1072 0023187 265.8374  94.0135 14.46284403819958,1969-070C,4084,7115.947,99.565,754.312,721.312,0
GENERATED VIA SPACETRACK.ORG API,18 SPCS,4084,SL-8 DEB,DEBRIS,U,69070C,2023-02-17 18:25:44,415552,14.46284717,0.0023188,74.0663,61.4628,265.1563,94.6947,0,999,82000,0.00011712,3.94e-06,0,3804075,0 SL-8 DEB,1 04084U 69070C   23048.76787518  .00000394  00000-0  11712-3 0  9995,2 04084  74.0663  61.4628 0023188 265.1563  94.6947 14.46284717820004,1969-070C,4084,7115.946,99.565,754.311,721.311,0
GENERATED VIA SPACETRACK.ORG API,18 SPCS,4084,SL-8 DEB,DEBRIS,U,69070C,2023-02-18 09:22:11,654688,14.46285015,0.0023187,74.0664,60.3029,263.8944,95.9572,0,999,82009,0.0001064,3.55e-06,0,3807124,0 SL-8 DEB,1 04084U 69070C   23049.39041267  .00000355  00000-0  10640-3 0  9995,2 04084  74.0664  60.3029 0023187 263.8944  95.9572 14.46285015820094,1969-070C,4084,7115.945,99.565,754.31,721.31,0
GENERATED VIA SPACETRACK.ORG API,18 SPCS,4084,SL-8 DEB,DEBRIS,U,69070C,2023-02-19 10:16:17,20128,14.46285683,0.002318,74.0665,58.3696,261.8087,98.0442,0,999,82022,9.779e-05,3.24e-06,0,3810663,0 SL-8 DEB,1  4084U 69070C   23050.42797477  .00000324  00000-0  97790-4 0  9990,2  4084  74.0665  58.3696 0023180 261.8087  98.0442 14.46285683820227,1969-070C,4084,7115.943,99.565,754.303,721.313,0
GENERATED VIA SPACETRACK.ORG API,18 SPCS,4084,SL-8 DEB,DEBRIS,U,69070C,2023-02-19 10:16:17,20128,14.46285683,0.002318,74.0665,58.3696,261.8087,98.0442,0,999,82024,9.779e-05,3.24e-06,0,3811610,0 SL-8 DEB,1 04084U 69070C   23050.42797477  .00000324  00000-0  97790-4 0  9990,2 04084  74.0665  58.3696 0023180 261.8087  98.0442 14.46285683820249,1969-070C,4084,7115.943,99.565,754.303,721.313,0
GENERATED VIA SPACETRACK.ORG API,18 SPCS,4084,SL-8 DEB,DEBRIS,U,69070C,2023-02-20 11:10:22,351008,14.46286318,0.0023176,74.0666,56.4364,259.7225,100.132,0,999,82039,8.9642e-05,2.95e-06,0,3815761,0 SL-8 DEB,1 04084U 69070C   23051.46553647  .00000295  00000-0  89642-4 0  9998,2 04084  74.0666  56.4364 0023176 259.7225 100.1320 14.46286318820398,1969-070C,4084,7115.941,99.565,754.298,721.314,0
GENERATED VIA SPACETRACK.ORG API,18 SPCS,4084,SL-8 DEB,DEBRIS,U,69070C,2023-02-21 10:24:51,286752,14.46286845,0.0023169,74.0667,54.6321,257.7892,102.0671,0,999,82051,7.9485e-05,2.59e-06,0,3819106,0 SL-8 DEB,1  4084U 69070C   23052.43392693  .00000259  00000-0  79485-4 0  9992,2  4084  74.0667  54.6321 0023169 257.7892 102.0671 14.46286845820511,1969-070C,4084,7115.939,99.565,754.291,721.317,0
GENERATED VIA SPACETRACK.ORG API,18 SPCS,4084,SL-8 DEB,DEBRIS,U,69070C,2023-02-21 10:24:51,286752,14.46286845,0.0023169,74.0667,54.6321,257.7892,102.0671,0,999,82053,7.9485e-05,2.59e-06,0,3819803,0 SL-8 DEB,1 04084U 69070C   23052.43392693  .00000259  00000-0  79485-4 0  9992,2 04084  74.0667  54.6321 0023169 257.7892 102.0671 14.46286845820533,1969-070C,4084,7115.939,99.565,754.291,721.317,0
GENERATED VIA SPACETRACK.ORG API,18 SPCS,4084,SL-8 DEB,DEBRIS,U,69070C,2023-02-21 17:03:16,692768,14.46286975,0.0023161,74.0667,54.1165,257.2288,102.6282,0,999,82057,7.6189e-05,2.47e-06,0,3821329,0 SL-8 DEB,1 04084U 69070C   23052.71060987  .00000247  00000-0  76189-4 0  9996,2 04084  74.0667  54.1165 0023161 257.2288 102.6282 14.46286975820572,1969-070C,4084,7115.939,99.565,754.285,721.322,0
